[{"icaoId":"KBWI","receiptTime":"2025-09-20T19:58:20.937Z","obsTime":1758398040,"reportTime":"2025-09-20T20:00:00.000Z","temp":23.9,"dewp":16.1,"wdir":90,"wspd":10,"visib":"10+","altim":1022.4,"slp":1022.1,"qcField":4,"metarType":"METAR","rawOb":"METAR KBWI 201954Z 09010KT 10SM FEW027 BKN060 BKN090 BKN250 24/16 A3019 RMK AO2 SLP221 T02390161","lat":39.1733,"lon":-76.684,"elev":42,"name":"Baltimore-Washington Intl, MD, US","cover":"BKN","clouds":[{"cover":"FEW","base":2700},{"cover":"BKN","base":6000},{"cover":"BKN","base":9000},{"cover":"BKN","base":25000}],"fltCat":"VFR"}]