[{"icaoId":"KDCA","receiptTime":"2025-09-20T19:56:38.098Z","obsTime":1758397920,"reportTime":"2025-09-20T20:00:00.000Z","temp":25,"dewp":17.8,"wdir":70,"wspd":7,"visib":"10+","altim":1021.8,"slp":1021.8,"qcField":4,"metarType":"METAR","rawOb":"METAR KDCA 201952Z 07007KT 10SM FEW028 BKN050 BKN080 BKN250 25/18 A3017 RMK AO2 SLP218 T02500178","lat":38.8472,"lon":-77.0345,"elev":4,"name":"Washington/Reagan-National Arpt, VA, US","cover":"BKN","clouds":[{"cover":"FEW","base":2800},{"cover":"BKN","base":5000},{"cover":"BKN","base":8000},{"cover":"BKN","base":25000}],"fltCat":"VFR"}]