[{"icaoId":"KIAD","receiptTime":"2025-09-20T19:56:38.158Z","obsTime":1758397920,"reportTime":"2025-09-20T20:00:00.000Z","temp":25,"dewp":16.1,"wdir":110,"wspd":9,"visib":"10+","altim":1022.1,"slp":1021.7,"qcField":4,"metarType":"METAR","rawOb":"METAR KIAD 201952Z 11009KT 10SM FEW050 BKN075 BKN250 25/16 A3018 RMK AO2 SLP217 T02500161","lat":38.9348,"lon":-77.4473,"elev":90,"name":"Washington/Dulles Intl, VA, US","cover":"BKN","clouds":[{"cover":"FEW","base":5000},{"cover":"BKN","base":7500},{"cover":"BKN","base":25000}],"fltCat":"VFR"}]