[{"icaoId":"KJFK","receiptTime":"2025-09-20T19:58:20.299Z","obsTime":1758397860,"reportTime":"2025-09-20T20:00:00.000Z","temp":21.7,"dewp":12.8,"wdir":120,"wspd":14,"visib":"10+","altim":1024.5,"slp":1024.4,"qcField":12,"metarType":"METAR","rawOb":"METAR KJFK 201951Z 12014KT 10SM FEW045 SCT250 22/13 A3025 RMK AO2 SLP244 T02170128 $","lat":40.6392,"lon":-73.7639,"elev":3,"name":"New York/JF Kennedy Intl, NY, US","cover":"SCT","clouds":[{"cover":"FEW","base":4500},{"cover":"SCT","base":25000}],"fltCat":"VFR"}]