[{"icaoId":"KPHL","receiptTime":"2025-09-20T20:02:28.594Z","obsTime":1758398040,"reportTime":"2025-09-20T20:00:00.000Z","temp":24.4,"dewp":14.4,"wdir":70,"wspd":9,"visib":"10+","altim":1023.1,"slp":1023,"qcField":12,"metarType":"METAR","rawOb":"METAR KPHL 201954Z 07009KT 10SM SCT045 SCT070 24/14 A3021 RMK AO2 SLP230 T02440144 $","lat":39.8733,"lon":-75.2268,"elev":2,"name":"Philadelphia Intl, PA, US","cover":"SCT","clouds":[{"cover":"SCT","base":4500},{"cover":"SCT","base":7000}],"fltCat":"VFR"}]